[{"OBJECT_NAME":"HAWK-6A","OBJECT_ID":"2023-011D","EPOCH":"2026-03-09T16:08:26.246400","MEAN_MOTION":15.21907632,"ECCENTRICITY":0.00021565,"INCLINATION":40.4983,"RA_OF_ASC_NODE":210.5544,"ARG_OF_PERICENTER":2.866,"MEAN_ANOMALY":357.2161,"EPHEMERIS_TYPE":0,"CLASSIFICATION_TYPE":"U","NORAD_CAT_ID":55327,"ELEMENT_SET_NO":999,"REV_AT_EPOCH":17268,"BSTAR":0.00032723111,"MEAN_MOTION_DOT":7.421e-5,"MEAN_MOTION_DDOT":0},{"OBJECT_NAME":"PRETTY","OBJECT_ID":"2023-155H","EPOCH":"2026-03-09T19:03:45.928512","MEAN_MOTION":15.22332126,"ECCENTRICITY":0.00021064,"INCLINATION":97.5727,"RA_OF_ASC_NODE":149.5557,"ARG_OF_PERICENTER":60.6464,"MEAN_ANOMALY":299.4982,"EPHEMERIS_TYPE":0,"CLASSIFICATION_TYPE":"U","NORAD_CAT_ID":58023,"ELEMENT_SET_NO":999,"REV_AT_EPOCH":13322,"BSTAR":0.00045567627,"MEAN_MOTION_DOT":0.00010441,"MEAN_MOTION_DDOT":0}]
